ERS 1
1 21574U 91050A   09296.65633084 -.00000067 +00000-0 -91973-5 0 05822
2 21574 098.1560 307.9582 0034917 046.0356 314.3685 14.35683752956523